STARLINK-2022           
1 47643U 21012Z   24034.90525819 -.00007584  00000+0 -49052-3 0  9990
2 47643  53.0535 244.8720 0001369  96.5582 263.5563 15.06419698164996
